1 20253U 89077A   26112.62684080 -.00000378  00000-0  00000+0 0  9997
2 20253  12.4373 351.4992 0007541   6.5877 203.6680  1.00262229260004
1 20776U 90079A   26112.81445933  .00000116  00000-0  00000+0 0  9993
2 20776  13.3581 350.1947 0002560  25.0596 162.2134  1.00267408130331
1 22787U 93056A   26112.84433024  .00000115  00000-0  00000+0 0  9995
2 22787  11.8763   3.8581 0008796 353.6528 186.0319  1.00276829117991
1 23467U 95003A   26112.47891865 -.00000031  00000-0  00000+0 0  9993
2 23467   9.7112  13.4161 0003498  15.2653 166.5487  1.00272568114392
1 23967U 96042A   26112.06643395 -.00000267  00000-0  00000-0 0  9992
2 23967  11.0648  17.3887 0007229  96.1964  85.5807  1.00231254108929
1 25544U 98067A   26112.52244765  .00007653  00000-0  14744-3 0  9991
2 25544  51.6320 215.6072 0006767 337.8366  22.2329 15.48891662563121
1 25967U 99063A   26112.08030950 -.00000194  00000-0  00000-0 0  9998
2 25967   9.8402  27.4977 0004182 350.6248 198.1763  1.00273529 96787
1 27168U 02001A   26112.83807883  .00000089  00000-0  00000+0 0  9990
2 27168  11.1152  22.2435 0099864   7.2426 142.1628  1.00277772 32408
1 27607U 02058C   26112.79104079  .00000631  00000-0  92349-4 0  9997
2 27607  64.5516 300.3635 0075578 272.5442  86.7014 14.82919471256240
1 28117U 03057A   26112.63363081 -.00000112  00000-0  00000+0 0  9990
2 28117   8.9275  34.0989 0002830 343.4404 136.6871  1.00272121 81894
1 28899U 05044A   26112.60083292 -.00000270  00000-0  00000+0 0  9990
2 28899   5.0250  43.7533 0002501 340.5716 186.1067  1.00268916 74967
1 30794U 07007B   26112.63474579 -.00000279  00000-0  00000+0 0  9992
2 30794   5.1609  74.3990 0004200 330.2996 129.7262  1.00269937 70144
1 32294U 07056B   26112.84258836  .00000132  00000-0  00000+0 0  9999
2 32294   5.1129  74.1454 0003848 316.2031 148.9911  1.00274568 67643
1 35943U 09054B   26112.85088492  .00000014  00000-0  00000+0 0  9992
2 35943   0.0352  66.2221 0003325 329.6779 184.3358  1.00270260 60759
1 36582U 10021B   26112.83223645  .00000078  00000-0  00000+0 0  9997
2 36582   0.0156 249.7319 0002817 159.3085 114.6640  1.00276640 58407
1 38098U 12011A   26112.77892073 -.00000069  00000-0  00000+0 0  9993
2 38098   0.0153 136.6102 0001753 258.2700 168.4785  1.00270662  6636
1 39034U 12075A   26112.63653573  .00000089  00000-0  00000+0 0  9990
2 39034   0.0707 355.9501 0003546  30.6530 105.9904  1.00270535 48607
1 39215U 13038A   26112.84207774  .00000124  00000-0  00000+0 0  9992
2 39215   2.9920   1.7718 0001984  58.2026 118.9476  1.00269682 43460
1 40296U 14069A   26112.34993465  .00000178  00000-0  00000+0 0  9991
2 40296  63.4483 220.8549 6668716 270.9178  19.3618  2.00584978 84110
1 40931U 15052B   25151.18580175  .00001241  00000-0  78118-4 0  9996
2 40931   6.0006  24.0987 0012733 338.8432  21.1169 14.78805930523159
1 43678U 18084H   26112.81388484  .00002323  00000-0  19092-3 0  9999
2 43678  98.1056 306.6694 0013530 358.4278   1.6899 15.00175599407918
1 43700U 18090A   26112.84207823  .00000133  00000-0  00000+0 0  9994
2 43700   0.0096 215.4033 0001100 192.6161 131.7930  1.00272459 27123
1 43803U 18099AX  26112.73426302  .00011323  00000-0  37015-3 0  9993
2 43803  97.4167 175.4409 0007543 108.9539 251.2521 15.31861234405133
1 44453U 19046A   26111.39073749 -.00000045  00000-0  00000-0 0  9993
2 44453  63.0776  58.0629 7058930 274.7018  14.9365  2.00612859 49208
1 44909U 19096E   26112.80922580  .00000017  00000-0  31484-4 0  9999
2 44909  82.5262  16.5038 0216376 273.9235  83.7156 12.79747958295265
1 45254U 20015A   26106.65281831 -.00000075  00000-0  00000-0 0  9990
2 45254  65.5094 325.5206 6878027 278.9530  14.7936  2.00601914 45053
1 52145U 22030A   26112.64168079  .00000220  00000-0  00000+0 0  9990
2 52145  62.6749 146.7431 6769568 272.9060  17.7478  2.00616452 29913
1 57167U 23091B   26010.59363612  .08733485  25619-5  12458-2 0  9993
2 57167  97.4978  91.1570 0009532 282.8011  77.2220 16.34765267141469
1 59112U 24043Q   26112.66342398  .00025033  00000-0  37734-3 0  9994
2 59112  97.5476 259.8506 0006977  53.2195 306.9698 15.54753512119254
1 67291U 25313AV  26112.72248097  .00009022  00000-0  36609-3 0  9990
2 67291  97.3943 188.5688 0009607 180.7107 179.4119 15.24794132 17538
1 26635U 00080A   21013.46269075 0.00000000  00000-0  00000-0 0    09
2 26635   9.2857  29.8038 0014383 186.3086 173.6859  1.00273100    09
1 34810U 09020A   25358.93258989 0.00000000  00000-0  00000-0 0    06
2 34810   2.7881  81.1408 0004972 246.2147 113.7417  1.00270000    08
1 40614U 15022B   25359.93496764 0.00000000  00000-0  00000-0 0    00
2 40614   0.0160 108.2839 0003453 352.8976   7.0980  1.00270000    04
